<?xml version='1.0' encoding='UTF-8'?>
<gpx version="1.1" creator="https://www.komoot.de" xmlns="http://www.topografix.com/GPX/1/1" xmlns:xsi="http://www.w3.org/2001/XMLSchema-instance" xsi:schemaLocation="http://www.topografix.com/GPX/1/1 http://www.topografix.com/GPX/1/1/gpx.xsd">
  <metadata>
    <name>GPX Download: Boucle Sentiers enchantés – Gorges de Thurignin au départ de Vieu</name>
    <author>
      <link href="https://www.komoot.de">
        <text>komoot</text>
        <type>text/html</type>
      </link>
    </author>
  </metadata>
  <wpt lat="45.874470" lon="5.687500">
    <name>Parking</name>
    <sym>Flag, Blue</sym>
  </wpt>
  <wpt lat="45.867941" lon="5.680168">
    <name>Plateau de Ferlioz</name>
    <sym>Flag, Blue</sym>
  </wpt>
  <wpt lat="45.867465" lon="5.679227">
    <name>Sentiers enchantés</name>
    <sym>Flag, Blue</sym>
  </wpt>
  <wpt lat="45.891721" lon="5.670576">
    <name>Gorges de Thurignin</name>
    <sym>Flag, Blue</sym>
  </wpt>
  <wpt lat="45.892390" lon="5.685330">
    <name>Fontaine et Chapelle de l'Adoue</name>
    <sym>Flag, Blue</sym>
  </wpt>
  <wpt lat="45.893310" lon="5.691190">
    <name>Source du Groin</name>
    <sym>Flag, Blue</sym>
  </wpt>
  <wpt lat="45.880556" lon="5.686887">
    <name>petit tour</name>
    <sym>Flag, Blue</sym>
  </wpt>
  <wpt lat="45.877810" lon="5.685730">
    <name>Petit spot d'escalade</name>
    <sym>Flag, Blue</sym>
  </wpt>
  <wpt lat="45.876642" lon="5.683531">
    <name>Four Communal de Parves</name>
    <sym>Flag, Blue</sym>
  </wpt>
  <trk>
    <name>GPX Download: Boucle Sentiers enchantés – Gorges de Thurignin au départ de Vieu</name>
    <trkseg>
      <trkpt lat="45.874480" lon="5.687501">
        <ele>246.374794</ele>
        <time>2026-03-06T17:27:04.636Z</time>
      </trkpt>
      <trkpt lat="45.874457" lon="5.687921">
        <ele>246.374794</ele>
        <time>2026-03-06T17:27:34.163Z</time>
      </trkpt>
      <trkpt lat="45.874425" lon="5.688016">
        <ele>246.374794</ele>
        <time>2026-03-06T17:27:41.554Z</time>
      </trkpt>
      <trkpt lat="45.874510" lon="5.688163">
        <ele>246.374794</ele>
        <time>2026-03-06T17:27:55.047Z</time>
      </trkpt>
      <trkpt lat="45.874590" lon="5.688264">
        <ele>246.374794</ele>
        <time>2026-03-06T17:28:05.819Z</time>
      </trkpt>
      <trkpt lat="45.874591" lon="5.687965">
        <ele>246.374794</ele>
        <time>2026-03-06T17:28:26.819Z</time>
      </trkpt>
      <trkpt lat="45.874590" lon="5.687814">
        <ele>246.377669</ele>
        <time>2026-03-06T17:28:37.482Z</time>
      </trkpt>
      <trkpt lat="45.874591" lon="5.687695">
        <ele>246.389380</ele>
        <time>2026-03-06T17:28:45.779Z</time>
      </trkpt>
      <trkpt lat="45.874601" lon="5.687084">
        <ele>246.449521</ele>
        <time>2026-03-06T17:29:28.694Z</time>
      </trkpt>
      <trkpt lat="45.874645" lon="5.686165">
        <ele>246.540168</ele>
        <time>2026-03-06T17:30:33.433Z</time>
      </trkpt>
      <trkpt lat="45.874675" lon="5.685945">
        <ele>246.562228</ele>
        <time>2026-03-06T17:30:49.112Z</time>
      </trkpt>
      <trkpt lat="45.874695" lon="5.685860">
        <ele>246.571057</ele>
        <time>2026-03-06T17:30:55.359Z</time>
      </trkpt>
      <trkpt lat="45.874774" lon="5.685677">
        <ele>246.592246</ele>
        <time>2026-03-06T17:31:10.398Z</time>
      </trkpt>
      <trkpt lat="45.874798" lon="5.685620">
        <ele>246.598801</ele>
        <time>2026-03-06T17:31:15.064Z</time>
      </trkpt>
      <trkpt lat="45.874835" lon="5.685528">
        <ele>246.609256</ele>
        <time>2026-03-06T17:31:22.481Z</time>
      </trkpt>
      <trkpt lat="45.874781" lon="5.685051">
        <ele>246.615246</ele>
        <time>2026-03-06T17:31:56.173Z</time>
      </trkpt>
      <trkpt lat="45.875065" lon="5.684446">
        <ele>246.579693</ele>
        <time>2026-03-06T17:32:47.084Z</time>
      </trkpt>
      <trkpt lat="45.874923" lon="5.684444">
        <ele>246.569755</ele>
        <time>2026-03-06T17:33:01.306Z</time>
      </trkpt>
      <trkpt lat="45.874782" lon="5.684265">
        <ele>246.556586</ele>
        <time>2026-03-06T17:33:20.159Z</time>
      </trkpt>
      <trkpt lat="45.874609" lon="5.684010">
        <ele>246.539238</ele>
        <time>2026-03-06T17:33:45.027Z</time>
      </trkpt>
      <trkpt lat="45.874545" lon="5.683950">
        <ele>246.533889</ele>
        <time>2026-03-06T17:33:52.695Z</time>
      </trkpt>
      <trkpt lat="45.873769" lon="5.684700">
        <ele>247.107643</ele>
        <time>2026-03-06T17:35:26.757Z</time>
      </trkpt>
      <trkpt lat="45.873709" lon="5.684909">
        <ele>247.299515</ele>
        <time>2026-03-06T17:35:42.531Z</time>
      </trkpt>
      <trkpt lat="45.873575" lon="5.685242">
        <ele>247.625951</ele>
        <time>2026-03-06T17:36:09.365Z</time>
      </trkpt>
      <trkpt lat="45.873373" lon="5.685501">
        <ele>247.956035</ele>
        <time>2026-03-06T17:36:36.953Z</time>
      </trkpt>
      <trkpt lat="45.872671" lon="5.686046">
        <ele>249.547142</ele>
        <time>2026-03-06T17:38:03.692Z</time>
      </trkpt>
      <trkpt lat="45.872169" lon="5.686482">
        <ele>252.159365</ele>
        <time>2026-03-06T17:39:16.540Z</time>
      </trkpt>
      <trkpt lat="45.872112" lon="5.686492">
        <ele>252.415060</ele>
        <time>2026-03-06T17:39:23.662Z</time>
      </trkpt>
      <trkpt lat="45.871949" lon="5.686358">
        <ele>253.251351</ele>
        <time>2026-03-06T17:39:46.420Z</time>
      </trkpt>
      <trkpt lat="45.871745" lon="5.686329">
        <ele>254.164158</ele>
        <time>2026-03-06T17:40:11.124Z</time>
      </trkpt>
      <trkpt lat="45.871540" lon="5.686157">
        <ele>255.221326</ele>
        <time>2026-03-06T17:40:39.060Z</time>
      </trkpt>
      <trkpt lat="45.871425" lon="5.686102">
        <ele>255.761041</ele>
        <time>2026-03-06T17:40:53.022Z</time>
      </trkpt>
      <trkpt lat="45.871238" lon="5.686611">
        <ele>256.246558</ele>
        <time>2026-03-06T17:41:36.287Z</time>
      </trkpt>
      <trkpt lat="45.871089" lon="5.686872">
        <ele>255.676315</ele>
        <time>2026-03-06T17:41:59.918Z</time>
      </trkpt>
      <trkpt lat="45.871017" lon="5.687064">
        <ele>255.307866</ele>
        <time>2026-03-06T17:42:15.635Z</time>
      </trkpt>
      <trkpt lat="45.870556" lon="5.687876">
        <ele>253.537696</ele>
        <time>2026-03-06T17:43:36.535Z</time>
      </trkpt>
      <trkpt lat="45.870383" lon="5.688063">
        <ele>253.012292</ele>
        <time>2026-03-06T17:44:00.301Z</time>
      </trkpt>
      <trkpt lat="45.870171" lon="5.688199">
        <ele>252.448878</ele>
        <time>2026-03-06T17:44:25.470Z</time>
      </trkpt>
      <trkpt lat="45.869641" lon="5.688379">
        <ele>251.923749</ele>
        <time>2026-03-06T17:45:22.825Z</time>
      </trkpt>
      <trkpt lat="45.869458" lon="5.688416">
        <ele>251.769777</ele>
        <time>2026-03-06T17:45:41.714Z</time>
      </trkpt>
      <trkpt lat="45.869003" lon="5.688396">
        <ele>251.390511</ele>
        <time>2026-03-06T17:46:27.466Z</time>
      </trkpt>
      <trkpt lat="45.868845" lon="5.688457">
        <ele>251.254198</ele>
        <time>2026-03-06T17:46:44.035Z</time>
      </trkpt>
      <trkpt lat="45.868909" lon="5.688515">
        <ele>251.191147</ele>
        <time>2026-03-06T17:46:51.691Z</time>
      </trkpt>
      <trkpt lat="45.868840" lon="5.688551">
        <ele>251.129983</ele>
        <time>2026-03-06T17:46:59.222Z</time>
      </trkpt>
      <trkpt lat="45.868682" lon="5.688512">
        <ele>250.996413</ele>
        <time>2026-03-06T17:47:15.569Z</time>
      </trkpt>
      <trkpt lat="45.868567" lon="5.688533">
        <ele>250.899828</ele>
        <time>2026-03-06T17:47:27.510Z</time>
      </trkpt>
      <trkpt lat="45.867764" lon="5.689056">
        <ele>252.951872</ele>
        <time>2026-03-06T17:49:00.660Z</time>
      </trkpt>
      <trkpt lat="45.867300" lon="5.688741">
        <ele>254.285906</ele>
        <time>2026-03-06T17:49:56.194Z</time>
      </trkpt>
      <trkpt lat="45.867018" lon="5.688488">
        <ele>255.150182</ele>
        <time>2026-03-06T17:50:33.321Z</time>
      </trkpt>
      <trkpt lat="45.867021" lon="5.688431">
        <ele>255.253644</ele>
        <time>2026-03-06T17:50:37.854Z</time>
      </trkpt>
      <trkpt lat="45.866628" lon="5.688207">
        <ele>258.204411</ele>
        <time>2026-03-06T17:51:28.281Z</time>
      </trkpt>
      <trkpt lat="45.866749" lon="5.687826">
        <ele>260.641416</ele>
        <time>2026-03-06T17:52:04.515Z</time>
      </trkpt>
      <trkpt lat="45.866851" lon="5.687499">
        <ele>262.726645</ele>
        <time>2026-03-06T17:52:36.283Z</time>
      </trkpt>
      <trkpt lat="45.866917" lon="5.687339">
        <ele>263.808902</ele>
        <time>2026-03-06T17:52:53.155Z</time>
      </trkpt>
      <trkpt lat="45.866955" lon="5.687152">
        <ele>264.942563</ele>
        <time>2026-03-06T17:53:11.031Z</time>
      </trkpt>
      <trkpt lat="45.867303" lon="5.686683">
        <ele>268.931116</ele>
        <time>2026-03-06T17:54:15.626Z</time>
      </trkpt>
      <trkpt lat="45.867419" lon="5.686544">
        <ele>270.193748</ele>
        <time>2026-03-06T17:54:36.467Z</time>
      </trkpt>
      <trkpt lat="45.867563" lon="5.686542">
        <ele>271.515315</ele>
        <time>2026-03-06T17:54:56.744Z</time>
      </trkpt>
      <trkpt lat="45.867715" lon="5.686505">
        <ele>272.983068</ele>
        <time>2026-03-06T17:55:18.676Z</time>
      </trkpt>
      <trkpt lat="45.867857" lon="5.686405">
        <ele>274.488765</ele>
        <time>2026-03-06T17:55:40.750Z</time>
      </trkpt>
      <trkpt lat="45.867961" lon="5.686373">
        <ele>275.501365</ele>
        <time>2026-03-06T17:55:55.459Z</time>
      </trkpt>
      <trkpt lat="45.868065" lon="5.686407">
        <ele>276.516825</ele>
        <time>2026-03-06T17:56:09.877Z</time>
      </trkpt>
      <trkpt lat="45.868300" lon="5.686355">
        <ele>278.780538</ele>
        <time>2026-03-06T17:56:41.907Z</time>
      </trkpt>
      <trkpt lat="45.868402" lon="5.686361">
        <ele>279.752441</ele>
        <time>2026-03-06T17:56:55.474Z</time>
      </trkpt>
      <trkpt lat="45.868490" lon="5.686371">
        <ele>280.592862</ele>
        <time>2026-03-06T17:57:07.145Z</time>
      </trkpt>
      <trkpt lat="45.868549" lon="5.686432">
        <ele>281.284988</ele>
        <time>2026-03-06T17:57:16.675Z</time>
      </trkpt>
      <trkpt lat="45.868628" lon="5.686447">
        <ele>282.043650</ele>
        <time>2026-03-06T17:57:26.962Z</time>
      </trkpt>
      <trkpt lat="45.868732" lon="5.686422">
        <ele>283.047554</ele>
        <time>2026-03-06T17:57:40.561Z</time>
      </trkpt>
      <trkpt lat="45.868783" lon="5.686326">
        <ele>283.848027</ele>
        <time>2026-03-06T17:57:51.403Z</time>
      </trkpt>
      <trkpt lat="45.868876" lon="5.686286">
        <ele>284.772285</ele>
        <time>2026-03-06T17:58:03.691Z</time>
      </trkpt>
      <trkpt lat="45.868906" lon="5.686305">
        <ele>285.084438</ele>
        <time>2026-03-06T17:58:07.800Z</time>
      </trkpt>
      <trkpt lat="45.868982" lon="5.686237">
        <ele>285.936927</ele>
        <time>2026-03-06T17:58:18.980Z</time>
      </trkpt>
      <trkpt lat="45.869079" lon="5.686213">
        <ele>286.874018</ele>
        <time>2026-03-06T17:58:31.326Z</time>
      </trkpt>
      <trkpt lat="45.869155" lon="5.686105">
        <ele>287.840331</ele>
        <time>2026-03-06T17:58:44.642Z</time>
      </trkpt>
      <trkpt lat="45.869172" lon="5.685784">
        <ele>289.471475</ele>
        <time>2026-03-06T17:59:12.585Z</time>
      </trkpt>
      <trkpt lat="45.869213" lon="5.685528">
        <ele>290.802446</ele>
        <time>2026-03-06T17:59:35.301Z</time>
      </trkpt>
      <trkpt lat="45.869336" lon="5.685263">
        <ele>292.416122</ele>
        <time>2026-03-06T18:00:02.853Z</time>
      </trkpt>
      <trkpt lat="45.869369" lon="5.685256">
        <ele>292.658861</ele>
        <time>2026-03-06T18:00:07.083Z</time>
      </trkpt>
      <trkpt lat="45.869434" lon="5.685136">
        <ele>293.429186</ele>
        <time>2026-03-06T18:00:20.216Z</time>
      </trkpt>
      <trkpt lat="45.869561" lon="5.684753">
        <ele>295.578578</ele>
        <time>2026-03-06T18:00:57.095Z</time>
      </trkpt>
      <trkpt lat="45.869627" lon="5.684645">
        <ele>296.306656</ele>
        <time>2026-03-06T18:01:09.627Z</time>
      </trkpt>
      <trkpt lat="45.869693" lon="5.684591">
        <ele>296.859391</ele>
        <time>2026-03-06T18:01:19.130Z</time>
      </trkpt>
      <trkpt lat="45.869721" lon="5.684490">
        <ele>297.410203</ele>
        <time>2026-03-06T18:01:28.620Z</time>
      </trkpt>
      <trkpt lat="45.869651" lon="5.684365">
        <ele>298.222969</ele>
        <time>2026-03-06T18:01:42.583Z</time>
      </trkpt>
      <trkpt lat="45.869764" lon="5.683853">
        <ele>300.910541</ele>
        <time>2026-03-06T18:02:29.365Z</time>
      </trkpt>
      <trkpt lat="45.869724" lon="5.683626">
        <ele>301.877761</ele>
        <time>2026-03-06T18:02:49.671Z</time>
      </trkpt>
      <trkpt lat="45.869742" lon="5.683341">
        <ele>303.059833</ele>
        <time>2026-03-06T18:03:14.490Z</time>
      </trkpt>
      <trkpt lat="45.869815" lon="5.683243">
        <ele>303.652632</ele>
        <time>2026-03-06T18:03:26.807Z</time>
      </trkpt>
      <trkpt lat="45.869880" lon="5.683228">
        <ele>304.043183</ele>
        <time>2026-03-06T18:03:34.984Z</time>
      </trkpt>
      <trkpt lat="45.869903" lon="5.683133">
        <ele>304.458639</ele>
        <time>2026-03-06T18:03:43.646Z</time>
      </trkpt>
      <trkpt lat="45.869915" lon="5.682985">
        <ele>305.074106</ele>
        <time>2026-03-06T18:03:56.348Z</time>
      </trkpt>
      <trkpt lat="45.869879" lon="5.682822">
        <ele>305.780462</ele>
        <time>2026-03-06T18:04:10.953Z</time>
      </trkpt>
      <trkpt lat="45.869884" lon="5.682621">
        <ele>306.611252</ele>
        <time>2026-03-06T18:04:28.008Z</time>
      </trkpt>
      <trkpt lat="45.869913" lon="5.682552">
        <ele>306.944165</ele>
        <time>2026-03-06T18:04:34.759Z</time>
      </trkpt>
      <trkpt lat="45.869893" lon="5.682478">
        <ele>307.272053</ele>
        <time>2026-03-06T18:04:41.406Z</time>
      </trkpt>
      <trkpt lat="45.869861" lon="5.682457">
        <ele>307.480768</ele>
        <time>2026-03-06T18:04:45.633Z</time>
      </trkpt>
      <trkpt lat="45.869873" lon="5.682391">
        <ele>307.762532</ele>
        <time>2026-03-06T18:04:51.288Z</time>
      </trkpt>
      <trkpt lat="45.869846" lon="5.682281">
        <ele>308.244310</ele>
        <time>2026-03-06T18:05:01.036Z</time>
      </trkpt>
      <trkpt lat="45.869858" lon="5.682068">
        <ele>309.127014</ele>
        <time>2026-03-06T18:05:18.700Z</time>
      </trkpt>
      <trkpt lat="45.869768" lon="5.681954">
        <ele>309.838917</ele>
        <time>2026-03-06T18:05:32.772Z</time>
      </trkpt>
      <trkpt lat="45.869710" lon="5.681757">
        <ele>310.722412</ele>
        <time>2026-03-06T18:05:50.154Z</time>
      </trkpt>
      <trkpt lat="45.869735" lon="5.681707">
        <ele>310.976679</ele>
        <time>2026-03-06T18:05:55.057Z</time>
      </trkpt>
      <trkpt lat="45.869706" lon="5.681595">
        <ele>311.436396</ele>
        <time>2026-03-06T18:06:04.707Z</time>
      </trkpt>
      <trkpt lat="45.869820" lon="5.681381">
        <ele>311.575013</ele>
        <time>2026-03-06T18:06:26.114Z</time>
      </trkpt>
      <trkpt lat="45.869693" lon="5.681142">
        <ele>311.729680</ele>
        <time>2026-03-06T18:06:49.738Z</time>
      </trkpt>
      <trkpt lat="45.869666" lon="5.680882">
        <ele>311.864916</ele>
        <time>2026-03-06T18:07:09.962Z</time>
      </trkpt>
      <trkpt lat="45.868834" lon="5.680555">
        <ele>312.502234</ele>
        <time>2026-03-06T18:08:38.655Z</time>
      </trkpt>
      <trkpt lat="45.868760" lon="5.680406">
        <ele>312.596388</ele>
        <time>2026-03-06T18:08:51.929Z</time>
      </trkpt>
      <trkpt lat="45.868704" lon="5.680392">
        <ele>312.638386</ele>
        <time>2026-03-06T18:08:57.997Z</time>
      </trkpt>
      <trkpt lat="45.868597" lon="5.680451">
        <ele>312.723068</ele>
        <time>2026-03-06T18:09:10.091Z</time>
      </trkpt>
      <trkpt lat="45.868113" lon="5.680223">
        <ele>311.077950</ele>
        <time>2026-03-06T18:10:06.216Z</time>
      </trkpt>
      <trkpt lat="45.867942" lon="5.680161">
        <ele>310.431070</ele>
        <time>2026-03-06T18:10:26.426Z</time>
      </trkpt>
      <trkpt lat="45.867486" lon="5.679995">
        <ele>308.705641</ele>
        <time>2026-03-06T18:11:19.458Z</time>
      </trkpt>
      <trkpt lat="45.867438" lon="5.680006">
        <ele>308.527358</ele>
        <time>2026-03-06T18:11:24.738Z</time>
      </trkpt>
      <trkpt lat="45.867353" lon="5.679942">
        <ele>308.175341</ele>
        <time>2026-03-06T18:11:35.123Z</time>
      </trkpt>
      <trkpt lat="45.867275" lon="5.679966">
        <ele>307.882757</ele>
        <time>2026-03-06T18:11:43.649Z</time>
      </trkpt>
      <trkpt lat="45.867100" lon="5.679892">
        <ele>307.213640</ele>
        <time>2026-03-06T18:12:03.041Z</time>
      </trkpt>
      <trkpt lat="45.867030" lon="5.679826">
        <ele>306.906502</ele>
        <time>2026-03-06T18:12:11.794Z</time>
      </trkpt>
      <trkpt lat="45.866901" lon="5.679836">
        <ele>306.432663</ele>
        <time>2026-03-06T18:12:25.112Z</time>
      </trkpt>
      <trkpt lat="45.866896" lon="5.679529">
        <ele>306.332683</ele>
        <time>2026-03-06T18:12:46.560Z</time>
      </trkpt>
      <trkpt lat="45.867085" lon="5.679389">
        <ele>306.589133</ele>
        <time>2026-03-06T18:13:08.698Z</time>
      </trkpt>
      <trkpt lat="45.867300" lon="5.679327">
        <ele>306.853580</ele>
        <time>2026-03-06T18:13:32.265Z</time>
      </trkpt>
      <trkpt lat="45.867458" lon="5.679207">
        <ele>307.069119</ele>
        <time>2026-03-06T18:13:52.084Z</time>
      </trkpt>
      <trkpt lat="45.867778" lon="5.678965">
        <ele>307.505245</ele>
        <time>2026-03-06T18:14:33.580Z</time>
      </trkpt>
      <trkpt lat="45.867943" lon="5.678747">
        <ele>307.775616</ele>
        <time>2026-03-06T18:14:58.895Z</time>
      </trkpt>
      <trkpt lat="45.868040" lon="5.678676">
        <ele>307.906906</ele>
        <time>2026-03-06T18:15:10.641Z</time>
      </trkpt>
      <trkpt lat="45.868118" lon="5.678577">
        <ele>308.032437</ele>
        <time>2026-03-06T18:15:21.504Z</time>
      </trkpt>
      <trkpt lat="45.868206" lon="5.678290">
        <ele>308.295760</ele>
        <time>2026-03-06T18:15:43.366Z</time>
      </trkpt>
      <trkpt lat="45.868331" lon="5.678055">
        <ele>307.801497</ele>
        <time>2026-03-06T18:16:04.654Z</time>
      </trkpt>
      <trkpt lat="45.868435" lon="5.677971">
        <ele>307.440675</ele>
        <time>2026-03-06T18:16:17.263Z</time>
      </trkpt>
      <trkpt lat="45.868671" lon="5.677956">
        <ele>306.726312</ele>
        <time>2026-03-06T18:16:42.515Z</time>
      </trkpt>
      <trkpt lat="45.868812" lon="5.677978">
        <ele>306.297418</ele>
        <time>2026-03-06T18:16:57.950Z</time>
      </trkpt>
      <trkpt lat="45.869306" lon="5.677481">
        <ele>304.473480</ele>
        <time>2026-03-06T18:18:03.903Z</time>
      </trkpt>
      <trkpt lat="45.869393" lon="5.677452">
        <ele>304.203398</ele>
        <time>2026-03-06T18:18:13.670Z</time>
      </trkpt>
      <trkpt lat="45.869620" lon="5.677458">
        <ele>303.516833</ele>
        <time>2026-03-06T18:18:38.200Z</time>
      </trkpt>
      <trkpt lat="45.869769" lon="5.677411">
        <ele>303.055517</ele>
        <time>2026-03-06T18:18:54.547Z</time>
      </trkpt>
      <trkpt lat="45.870180" lon="5.677139">
        <ele>301.991025</ele>
        <time>2026-03-06T18:19:42.194Z</time>
      </trkpt>
      <trkpt lat="45.870303" lon="5.677122">
        <ele>301.711523</ele>
        <time>2026-03-06T18:19:54.988Z</time>
      </trkpt>
      <trkpt lat="45.870713" lon="5.677533">
        <ele>300.580574</ele>
        <time>2026-03-06T18:20:46.274Z</time>
      </trkpt>
      <trkpt lat="45.871222" lon="5.677902">
        <ele>299.290897</ele>
        <time>2026-03-06T18:21:45.405Z</time>
      </trkpt>
      <trkpt lat="45.871370" lon="5.677971">
        <ele>298.938936</ele>
        <time>2026-03-06T18:22:01.912Z</time>
      </trkpt>
      <trkpt lat="45.871786" lon="5.678070">
        <ele>298.081514</ele>
        <time>2026-03-06T18:22:47.323Z</time>
      </trkpt>
      <trkpt lat="45.871922" lon="5.678117">
        <ele>297.801423</ele>
        <time>2026-03-06T18:23:02.320Z</time>
      </trkpt>
      <trkpt lat="45.872155" lon="5.678272">
        <ele>297.287261</ele>
        <time>2026-03-06T18:23:29.488Z</time>
      </trkpt>
      <trkpt lat="45.872304" lon="5.678428">
        <ele>296.918055</ele>
        <time>2026-03-06T18:23:48.959Z</time>
      </trkpt>
      <trkpt lat="45.872445" lon="5.678637">
        <ele>296.512332</ele>
        <time>2026-03-06T18:24:10.239Z</time>
      </trkpt>
      <trkpt lat="45.872478" lon="5.678516">
        <ele>296.331160</ele>
        <time>2026-03-06T18:24:19.614Z</time>
      </trkpt>
      <trkpt lat="45.872525" lon="5.678013">
        <ele>295.623618</ele>
        <time>2026-03-06T18:24:56.225Z</time>
      </trkpt>
      <trkpt lat="45.872431" lon="5.677206">
        <ele>295.544587</ele>
        <time>2026-03-06T18:25:53.723Z</time>
      </trkpt>
      <trkpt lat="45.872300" lon="5.675561">
        <ele>296.545930</ele>
        <time>2026-03-06T18:27:56.757Z</time>
      </trkpt>
      <trkpt lat="45.872226" lon="5.674785">
        <ele>296.578953</ele>
        <time>2026-03-06T18:28:51.820Z</time>
      </trkpt>
      <trkpt lat="45.872335" lon="5.673586">
        <ele>295.932670</ele>
        <time>2026-03-06T18:30:17.858Z</time>
      </trkpt>
      <trkpt lat="45.872401" lon="5.672015">
        <ele>295.132988</ele>
        <time>2026-03-06T18:32:10.639Z</time>
      </trkpt>
      <trkpt lat="45.872391" lon="5.671555">
        <ele>294.919581</ele>
        <time>2026-03-06T18:32:43.211Z</time>
      </trkpt>
      <trkpt lat="45.872350" lon="5.671116">
        <ele>294.714192</ele>
        <time>2026-03-06T18:33:14.468Z</time>
      </trkpt>
      <trkpt lat="45.872283" lon="5.670687">
        <ele>294.510320</ele>
        <time>2026-03-06T18:33:45.490Z</time>
      </trkpt>
      <trkpt lat="45.872280" lon="5.670496">
        <ele>294.421730</ele>
        <time>2026-03-06T18:33:58.897Z</time>
      </trkpt>
      <trkpt lat="45.872295" lon="5.670262">
        <ele>294.312765</ele>
        <time>2026-03-06T18:34:15.311Z</time>
      </trkpt>
      <trkpt lat="45.872538" lon="5.669252">
        <ele>295.201792</ele>
        <time>2026-03-06T18:35:29.790Z</time>
      </trkpt>
      <trkpt lat="45.873000" lon="5.669405">
        <ele>296.007491</ele>
        <time>2026-03-06T18:36:19.133Z</time>
      </trkpt>
      <trkpt lat="45.873252" lon="5.669408">
        <ele>296.435742</ele>
        <time>2026-03-06T18:36:46.245Z</time>
      </trkpt>
      <trkpt lat="45.873341" lon="5.669331">
        <ele>296.612303</ele>
        <time>2026-03-06T18:36:57.560Z</time>
      </trkpt>
      <trkpt lat="45.874341" lon="5.668986">
        <ele>300.143722</ele>
        <time>2026-03-06T18:38:55.475Z</time>
      </trkpt>
      <trkpt lat="45.875209" lon="5.669466">
        <ele>304.295803</ele>
        <time>2026-03-06T18:40:45.425Z</time>
      </trkpt>
      <trkpt lat="45.875534" lon="5.669599">
        <ele>305.647792</ele>
        <time>2026-03-06T18:41:24.422Z</time>
      </trkpt>
      <trkpt lat="45.875886" lon="5.669684">
        <ele>306.753439</ele>
        <time>2026-03-06T18:42:04.179Z</time>
      </trkpt>
      <trkpt lat="45.876051" lon="5.669713">
        <ele>307.268350</ele>
        <time>2026-03-06T18:42:22.534Z</time>
      </trkpt>
      <trkpt lat="45.876504" lon="5.669887">
        <ele>308.720856</ele>
        <time>2026-03-06T18:43:14.035Z</time>
      </trkpt>
      <trkpt lat="45.876848" lon="5.670086">
        <ele>309.869593</ele>
        <time>2026-03-06T18:43:54.597Z</time>
      </trkpt>
      <trkpt lat="45.877075" lon="5.670247">
        <ele>310.653791</ele>
        <time>2026-03-06T18:44:22.333Z</time>
      </trkpt>
      <trkpt lat="45.877161" lon="5.670274">
        <ele>310.874721</ele>
        <time>2026-03-06T18:44:31.997Z</time>
      </trkpt>
      <trkpt lat="45.877239" lon="5.670248">
        <ele>310.916291</ele>
        <time>2026-03-06T18:44:40.941Z</time>
      </trkpt>
      <trkpt lat="45.877300" lon="5.670185">
        <ele>310.955295</ele>
        <time>2026-03-06T18:44:49.271Z</time>
      </trkpt>
      <trkpt lat="45.877472" lon="5.669739">
        <ele>311.139573</ele>
        <time>2026-03-06T18:45:28.102Z</time>
      </trkpt>
      <trkpt lat="45.877610" lon="5.669526">
        <ele>311.244737</ele>
        <time>2026-03-06T18:45:48.967Z</time>
      </trkpt>
      <trkpt lat="45.877677" lon="5.669366">
        <ele>311.312220</ele>
        <time>2026-03-06T18:46:02.007Z</time>
      </trkpt>
      <trkpt lat="45.877696" lon="5.668866">
        <ele>311.493204</ele>
        <time>2026-03-06T18:46:37.108Z</time>
      </trkpt>
      <trkpt lat="45.877747" lon="5.668788">
        <ele>311.531880</ele>
        <time>2026-03-06T18:46:44.595Z</time>
      </trkpt>
      <trkpt lat="45.877820" lon="5.668751">
        <ele>311.572068</ele>
        <time>2026-03-06T18:46:52.593Z</time>
      </trkpt>
      <trkpt lat="45.877882" lon="5.668748">
        <ele>311.604273</ele>
        <time>2026-03-06T18:46:58.871Z</time>
      </trkpt>
      <trkpt lat="45.878049" lon="5.669026">
        <ele>311.736985</ele>
        <time>2026-03-06T18:47:25.248Z</time>
      </trkpt>
      <trkpt lat="45.878142" lon="5.669228">
        <ele>312.020037</ele>
        <time>2026-03-06T18:47:42.651Z</time>
      </trkpt>
      <trkpt lat="45.878225" lon="5.669349">
        <ele>312.535385</ele>
        <time>2026-03-06T18:47:54.762Z</time>
      </trkpt>
      <trkpt lat="45.878449" lon="5.669557">
        <ele>313.697740</ele>
        <time>2026-03-06T18:48:22.161Z</time>
      </trkpt>
      <trkpt lat="45.878878" lon="5.670030">
        <ele>316.054480</ele>
        <time>2026-03-06T18:49:16.544Z</time>
      </trkpt>
      <trkpt lat="45.879101" lon="5.670433">
        <ele>317.616266</ele>
        <time>2026-03-06T18:49:58.766Z</time>
      </trkpt>
      <trkpt lat="45.879147" lon="5.670694">
        <ele>318.433065</ele>
        <time>2026-03-06T18:50:23.239Z</time>
      </trkpt>
      <trkpt lat="45.879270" lon="5.671035">
        <ele>319.598199</ele>
        <time>2026-03-06T18:51:01.063Z</time>
      </trkpt>
      <trkpt lat="45.879362" lon="5.671418">
        <ele>325.084234</ele>
        <time>2026-03-06T18:51:47.927Z</time>
      </trkpt>
      <trkpt lat="45.879438" lon="5.671582">
        <ele>327.817900</ele>
        <time>2026-03-06T18:52:13.158Z</time>
      </trkpt>
      <trkpt lat="45.879546" lon="5.671656">
        <ele>330.202838</ele>
        <time>2026-03-06T18:52:36.148Z</time>
      </trkpt>
      <trkpt lat="45.879815" lon="5.671519">
        <ele>335.891391</ele>
        <time>2026-03-06T18:53:35.318Z</time>
      </trkpt>
      <trkpt lat="45.879917" lon="5.671507">
        <ele>337.931196</ele>
        <time>2026-03-06T18:53:57.819Z</time>
      </trkpt>
      <trkpt lat="45.880473" lon="5.671665">
        <ele>349.227795</ele>
        <time>2026-03-06T18:56:09.089Z</time>
      </trkpt>
      <trkpt lat="45.880835" lon="5.671982">
        <ele>356.862438</ele>
        <time>2026-03-06T18:57:40.446Z</time>
      </trkpt>
      <trkpt lat="45.881298" lon="5.672289">
        <ele>363.245641</ele>
        <time>2026-03-06T18:59:12.806Z</time>
      </trkpt>
      <trkpt lat="45.881413" lon="5.672329">
        <ele>364.726743</ele>
        <time>2026-03-06T18:59:31.762Z</time>
      </trkpt>
      <trkpt lat="45.881431" lon="5.672435">
        <ele>365.677505</ele>
        <time>2026-03-06T18:59:43.391Z</time>
      </trkpt>
      <trkpt lat="45.881245" lon="5.672687">
        <ele>368.877936</ele>
        <time>2026-03-06T19:00:19.377Z</time>
      </trkpt>
      <trkpt lat="45.881169" lon="5.673105">
        <ele>372.642564</ele>
        <time>2026-03-06T19:00:58.251Z</time>
      </trkpt>
      <trkpt lat="45.881134" lon="5.673617">
        <ele>377.125586</ele>
        <time>2026-03-06T19:01:40.875Z</time>
      </trkpt>
      <trkpt lat="45.881165" lon="5.673708">
        <ele>378.002427</ele>
        <time>2026-03-06T19:01:48.760Z</time>
      </trkpt>
      <trkpt lat="45.881214" lon="5.673823">
        <ele>378.346264</ele>
        <time>2026-03-06T19:01:59.185Z</time>
      </trkpt>
      <trkpt lat="45.881344" lon="5.673985">
        <ele>378.976702</ele>
        <time>2026-03-06T19:02:18.043Z</time>
      </trkpt>
      <trkpt lat="45.882117" lon="5.674678">
        <ele>382.314574</ele>
        <time>2026-03-06T19:04:02.553Z</time>
      </trkpt>
      <trkpt lat="45.882365" lon="5.675029">
        <ele>383.589917</ele>
        <time>2026-03-06T19:04:41.665Z</time>
      </trkpt>
      <trkpt lat="45.882477" lon="5.675296">
        <ele>384.384847</ele>
        <time>2026-03-06T19:05:05.531Z</time>
      </trkpt>
      <trkpt lat="45.882507" lon="5.675528">
        <ele>384.307744</ele>
        <time>2026-03-06T19:05:23.228Z</time>
      </trkpt>
      <trkpt lat="45.882477" lon="5.675757">
        <ele>383.888013</ele>
        <time>2026-03-06T19:05:40.449Z</time>
      </trkpt>
      <trkpt lat="45.882316" lon="5.676046">
        <ele>383.221273</ele>
        <time>2026-03-06T19:06:06.748Z</time>
      </trkpt>
      <trkpt lat="45.881687" lon="5.676643">
        <ele>381.270537</ele>
        <time>2026-03-06T19:07:25.842Z</time>
      </trkpt>
      <trkpt lat="45.881646" lon="5.676714">
        <ele>381.104370</ele>
        <time>2026-03-06T19:07:32.839Z</time>
      </trkpt>
      <trkpt lat="45.881074" lon="5.677327">
        <ele>378.711493</ele>
        <time>2026-03-06T19:08:54.477Z</time>
      </trkpt>
      <trkpt lat="45.881015" lon="5.677498">
        <ele>378.090265</ele>
        <time>2026-03-06T19:09:10.339Z</time>
      </trkpt>
      <trkpt lat="45.881004" lon="5.677652">
        <ele>377.586355</ele>
        <time>2026-03-06T19:09:23.330Z</time>
      </trkpt>
      <trkpt lat="45.880957" lon="5.677839">
        <ele>376.939204</ele>
        <time>2026-03-06T19:09:39.947Z</time>
      </trkpt>
      <trkpt lat="45.880897" lon="5.677980">
        <ele>376.401287</ele>
        <time>2026-03-06T19:09:53.718Z</time>
      </trkpt>
      <trkpt lat="45.880708" lon="5.678090">
        <ele>375.447781</ele>
        <time>2026-03-06T19:10:17.177Z</time>
      </trkpt>
      <trkpt lat="45.880587" lon="5.678085">
        <ele>374.881777</ele>
        <time>2026-03-06T19:10:30.500Z</time>
      </trkpt>
      <trkpt lat="45.880496" lon="5.678130">
        <ele>374.431773</ele>
        <time>2026-03-06T19:10:40.933Z</time>
      </trkpt>
      <trkpt lat="45.880432" lon="5.678212">
        <ele>374.030780</ele>
        <time>2026-03-06T19:10:50.302Z</time>
      </trkpt>
      <trkpt lat="45.880229" lon="5.678314">
        <ele>373.025201</ele>
        <time>2026-03-06T19:11:12.766Z</time>
      </trkpt>
      <trkpt lat="45.880134" lon="5.678401">
        <ele>372.498407</ele>
        <time>2026-03-06T19:11:24.314Z</time>
      </trkpt>
      <trkpt lat="45.880130" lon="5.678467">
        <ele>372.282757</ele>
        <time>2026-03-06T19:11:29.004Z</time>
      </trkpt>
      <trkpt lat="45.880155" lon="5.678602">
        <ele>371.828036</ele>
        <time>2026-03-06T19:11:38.762Z</time>
      </trkpt>
      <trkpt lat="45.880139" lon="5.678784">
        <ele>371.817437</ele>
        <time>2026-03-06T19:11:52.089Z</time>
      </trkpt>
      <trkpt lat="45.880386" lon="5.678733">
        <ele>372.980643</ele>
        <time>2026-03-06T19:12:19.653Z</time>
      </trkpt>
      <trkpt lat="45.881256" lon="5.678176">
        <ele>377.420650</ele>
        <time>2026-03-06T19:14:17.159Z</time>
      </trkpt>
      <trkpt lat="45.882282" lon="5.677075">
        <ele>382.466692</ele>
        <time>2026-03-06T19:16:46.000Z</time>
      </trkpt>
      <trkpt lat="45.882688" lon="5.676747">
        <ele>384.061904</ele>
        <time>2026-03-06T19:17:36.042Z</time>
      </trkpt>
      <trkpt lat="45.883178" lon="5.676425">
        <ele>385.907235</ele>
        <time>2026-03-06T19:18:33.876Z</time>
      </trkpt>
      <trkpt lat="45.883528" lon="5.676374">
        <ele>387.646371</ele>
        <time>2026-03-06T19:19:12.598Z</time>
      </trkpt>
      <trkpt lat="45.883833" lon="5.676430">
        <ele>389.238664</ele>
        <time>2026-03-06T19:19:48.163Z</time>
      </trkpt>
      <trkpt lat="45.884153" lon="5.676576">
        <ele>390.977355</ele>
        <time>2026-03-06T19:20:28.698Z</time>
      </trkpt>
      <trkpt lat="45.884277" lon="5.676559">
        <ele>391.622407</ele>
        <time>2026-03-06T19:20:44.148Z</time>
      </trkpt>
      <trkpt lat="45.884428" lon="5.676673">
        <ele>392.505770</ele>
        <time>2026-03-06T19:21:06.304Z</time>
      </trkpt>
      <trkpt lat="45.884484" lon="5.676595">
        <ele>392.909697</ele>
        <time>2026-03-06T19:21:16.382Z</time>
      </trkpt>
      <trkpt lat="45.884679" lon="5.676585">
        <ele>393.920149</ele>
        <time>2026-03-06T19:21:40.725Z</time>
      </trkpt>
      <trkpt lat="45.884883" lon="5.676510">
        <ele>395.010610</ele>
        <time>2026-03-06T19:22:05.958Z</time>
      </trkpt>
      <trkpt lat="45.885254" lon="5.676182">
        <ele>396.236550</ele>
        <time>2026-03-06T19:22:56.177Z</time>
      </trkpt>
      <trkpt lat="45.885431" lon="5.676109">
        <ele>396.668733</ele>
        <time>2026-03-06T19:23:17.346Z</time>
      </trkpt>
      <trkpt lat="45.885375" lon="5.676052">
        <ele>396.829806</ele>
        <time>2026-03-06T19:23:24.895Z</time>
      </trkpt>
      <trkpt lat="45.885140" lon="5.676007">
        <ele>397.386208</ele>
        <time>2026-03-06T19:23:51.063Z</time>
      </trkpt>
      <trkpt lat="45.885073" lon="5.675848">
        <ele>397.689850</ele>
        <time>2026-03-06T19:24:04.691Z</time>
      </trkpt>
      <trkpt lat="45.885068" lon="5.675641">
        <ele>398.028226</ele>
        <time>2026-03-06T19:24:19.897Z</time>
      </trkpt>
      <trkpt lat="45.885059" lon="5.675255">
        <ele>398.659182</ele>
        <time>2026-03-06T19:24:47.335Z</time>
      </trkpt>
      <trkpt lat="45.885017" lon="5.675027">
        <ele>399.044485</ele>
        <time>2026-03-06T19:25:03.870Z</time>
      </trkpt>
      <trkpt lat="45.885110" lon="5.674312">
        <ele>399.752158</ele>
        <time>2026-03-06T19:25:55.450Z</time>
      </trkpt>
      <trkpt lat="45.885235" lon="5.673867">
        <ele>399.936739</ele>
        <time>2026-03-06T19:26:31.073Z</time>
      </trkpt>
      <trkpt lat="45.885283" lon="5.673828">
        <ele>399.967211</ele>
        <time>2026-03-06T19:26:36.941Z</time>
      </trkpt>
      <trkpt lat="45.885439" lon="5.673867">
        <ele>400.054710</ele>
        <time>2026-03-06T19:26:53.940Z</time>
      </trkpt>
      <trkpt lat="45.885543" lon="5.673985">
        <ele>400.127940</ele>
        <time>2026-03-06T19:27:08.036Z</time>
      </trkpt>
      <trkpt lat="45.885796" lon="5.674090">
        <ele>400.273460</ele>
        <time>2026-03-06T19:27:35.472Z</time>
      </trkpt>
      <trkpt lat="45.886170" lon="5.674402">
        <ele>400.512443</ele>
        <time>2026-03-06T19:28:19.133Z</time>
      </trkpt>
      <trkpt lat="45.886465" lon="5.674351">
        <ele>400.414695</ele>
        <time>2026-03-06T19:28:49.122Z</time>
      </trkpt>
      <trkpt lat="45.886668" lon="5.674209">
        <ele>400.123627</ele>
        <time>2026-03-06T19:29:12.076Z</time>
      </trkpt>
      <trkpt lat="45.887004" lon="5.673752">
        <ele>399.527149</ele>
        <time>2026-03-06T19:29:59.769Z</time>
      </trkpt>
      <trkpt lat="45.887682" lon="5.673307">
        <ele>398.566220</ele>
        <time>2026-03-06T19:31:17.623Z</time>
      </trkpt>
      <trkpt lat="45.888110" lon="5.673257">
        <ele>398.199415</ele>
        <time>2026-03-06T19:32:01.463Z</time>
      </trkpt>
      <trkpt lat="45.888356" lon="5.673170">
        <ele>398.101531</ele>
        <time>2026-03-06T19:32:27.175Z</time>
      </trkpt>
      <trkpt lat="45.888541" lon="5.673231">
        <ele>398.028195</ele>
        <time>2026-03-06T19:32:46.508Z</time>
      </trkpt>
      <trkpt lat="45.888585" lon="5.673269">
        <ele>398.008359</ele>
        <time>2026-03-06T19:32:51.797Z</time>
      </trkpt>
      <trkpt lat="45.888878" lon="5.673727">
        <ele>397.841067</ele>
        <time>2026-03-06T19:33:36.042Z</time>
      </trkpt>
      <trkpt lat="45.888993" lon="5.673792">
        <ele>397.793320</ele>
        <time>2026-03-06T19:33:48.537Z</time>
      </trkpt>
      <trkpt lat="45.889248" lon="5.673697">
        <ele>397.691537</ele>
        <time>2026-03-06T19:34:15.033Z</time>
      </trkpt>
      <trkpt lat="45.889426" lon="5.673462">
        <ele>397.598136</ele>
        <time>2026-03-06T19:34:39.840Z</time>
      </trkpt>
      <trkpt lat="45.889638" lon="5.673320">
        <ele>398.424732</ele>
        <time>2026-03-06T19:35:04.468Z</time>
      </trkpt>
      <trkpt lat="45.889671" lon="5.673200">
        <ele>398.805147</ele>
        <time>2026-03-06T19:35:13.953Z</time>
      </trkpt>
      <trkpt lat="45.889989" lon="5.672800">
        <ele>400.595475</ele>
        <time>2026-03-06T19:35:59.914Z</time>
      </trkpt>
      <trkpt lat="45.890025" lon="5.672665">
        <ele>401.021712</ele>
        <time>2026-03-06T19:36:11.223Z</time>
      </trkpt>
      <trkpt lat="45.890402" lon="5.672429">
        <ele>402.763643</ele>
        <time>2026-03-06T19:36:59.356Z</time>
      </trkpt>
      <trkpt lat="45.890670" lon="5.672093">
        <ele>404.270317</ele>
        <time>2026-03-06T19:37:43.205Z</time>
      </trkpt>
      <trkpt lat="45.890979" lon="5.671814">
        <ele>406.095560</ele>
        <time>2026-03-06T19:38:29.468Z</time>
      </trkpt>
      <trkpt lat="45.891567" lon="5.671088">
        <ele>410.876231</ele>
        <time>2026-03-06T19:40:05.720Z</time>
      </trkpt>
      <trkpt lat="45.891683" lon="5.671072">
        <ele>411.594805</ele>
        <time>2026-03-06T19:40:19.808Z</time>
      </trkpt>
      <trkpt lat="45.891851" lon="5.670679">
        <ele>413.574210</ele>
        <time>2026-03-06T19:40:58.482Z</time>
      </trkpt>
      <trkpt lat="45.891753" lon="5.670612">
        <ele>414.243429</ele>
        <time>2026-03-06T19:41:14.652Z</time>
      </trkpt>
      <trkpt lat="45.891726" lon="5.670591">
        <ele>414.432748</ele>
        <time>2026-03-06T19:41:19.092Z</time>
      </trkpt>
      <trkpt lat="45.891753" lon="5.670612">
        <ele>414.622067</ele>
        <time>2026-03-06T19:41:23.654Z</time>
      </trkpt>
      <trkpt lat="45.891851" lon="5.670679">
        <ele>415.291287</ele>
        <time>2026-03-06T19:41:39.648Z</time>
      </trkpt>
      <trkpt lat="45.891930" lon="5.670667">
        <ele>415.781135</ele>
        <time>2026-03-06T19:41:51.349Z</time>
      </trkpt>
      <trkpt lat="45.892130" lon="5.670553">
        <ele>416.651765</ele>
        <time>2026-03-06T19:42:22.510Z</time>
      </trkpt>
      <trkpt lat="45.892160" lon="5.670596">
        <ele>416.766601</ele>
        <time>2026-03-06T19:42:28.614Z</time>
      </trkpt>
      <trkpt lat="45.892242" lon="5.670541">
        <ele>417.011837</ele>
        <time>2026-03-06T19:42:38.898Z</time>
      </trkpt>
      <trkpt lat="45.892333" lon="5.670528">
        <ele>417.259658</ele>
        <time>2026-03-06T19:42:49.271Z</time>
      </trkpt>
      <trkpt lat="45.892570" lon="5.670628">
        <ele>417.929036</ele>
        <time>2026-03-06T19:43:16.759Z</time>
      </trkpt>
      <trkpt lat="45.892936" lon="5.670962">
        <ele>419.104025</ele>
        <time>2026-03-06T19:44:04.569Z</time>
      </trkpt>
      <trkpt lat="45.893270" lon="5.671163">
        <ele>420.085332</ele>
        <time>2026-03-06T19:44:43.626Z</time>
      </trkpt>
      <trkpt lat="45.893734" lon="5.671343">
        <ele>421.276311</ele>
        <time>2026-03-06T19:45:33.792Z</time>
      </trkpt>
      <trkpt lat="45.894143" lon="5.671290">
        <ele>421.823881</ele>
        <time>2026-03-06T19:46:15.199Z</time>
      </trkpt>
      <trkpt lat="45.894203" lon="5.671416">
        <ele>421.965561</ele>
        <time>2026-03-06T19:46:25.835Z</time>
      </trkpt>
      <trkpt lat="45.894349" lon="5.671539">
        <ele>422.191233</ele>
        <time>2026-03-06T19:46:42.920Z</time>
      </trkpt>
      <trkpt lat="45.894530" lon="5.671450">
        <ele>422.446318</ele>
        <time>2026-03-06T19:47:02.230Z</time>
      </trkpt>
      <trkpt lat="45.894573" lon="5.671463">
        <ele>422.504909</ele>
        <time>2026-03-06T19:47:06.680Z</time>
      </trkpt>
      <trkpt lat="45.894791" lon="5.671531">
        <ele>422.802360</ele>
        <time>2026-03-06T19:47:29.284Z</time>
      </trkpt>
      <trkpt lat="45.894951" lon="5.671851">
        <ele>423.168012</ele>
        <time>2026-03-06T19:47:57.453Z</time>
      </trkpt>
      <trkpt lat="45.895215" lon="5.672063">
        <ele>423.603440</ele>
        <time>2026-03-06T19:48:30.551Z</time>
      </trkpt>
      <trkpt lat="45.895673" lon="5.672192">
        <ele>428.545698</ele>
        <time>2026-03-06T19:49:27.205Z</time>
      </trkpt>
      <trkpt lat="45.895250" lon="5.672698">
        <ele>434.374170</ele>
        <time>2026-03-06T19:50:42.708Z</time>
      </trkpt>
      <trkpt lat="45.894805" lon="5.672975">
        <ele>439.509667</ele>
        <time>2026-03-06T19:52:03.375Z</time>
      </trkpt>
      <trkpt lat="45.894736" lon="5.673099">
        <ele>440.679734</ele>
        <time>2026-03-06T19:52:22.610Z</time>
      </trkpt>
      <trkpt lat="45.894689" lon="5.673311">
        <ele>442.319531</ele>
        <time>2026-03-06T19:52:48.873Z</time>
      </trkpt>
      <trkpt lat="45.894461" lon="5.673603">
        <ele>444.654671</ele>
        <time>2026-03-06T19:53:36.711Z</time>
      </trkpt>
      <trkpt lat="45.894218" lon="5.673831">
        <ele>446.788249</ele>
        <time>2026-03-06T19:54:17.165Z</time>
      </trkpt>
      <trkpt lat="45.893978" lon="5.674308">
        <ele>449.799803</ele>
        <time>2026-03-06T19:55:08.784Z</time>
      </trkpt>
      <trkpt lat="45.893911" lon="5.674367">
        <ele>450.377502</ele>
        <time>2026-03-06T19:55:18.158Z</time>
      </trkpt>
      <trkpt lat="45.893541" lon="5.675205">
        <ele>455.455200</ele>
        <time>2026-03-06T19:56:34.033Z</time>
      </trkpt>
      <trkpt lat="45.893509" lon="5.675337">
        <ele>456.111970</ele>
        <time>2026-03-06T19:56:43.984Z</time>
      </trkpt>
      <trkpt lat="45.893512" lon="5.675449">
        <ele>456.585281</ele>
        <time>2026-03-06T19:56:52.098Z</time>
      </trkpt>
      <trkpt lat="45.893540" lon="5.675556">
        <ele>457.068009</ele>
        <time>2026-03-06T19:57:00.359Z</time>
      </trkpt>
      <trkpt lat="45.893598" lon="5.675616">
        <ele>457.501640</ele>
        <time>2026-03-06T19:57:07.868Z</time>
      </trkpt>
      <trkpt lat="45.893780" lon="5.675629">
        <ele>458.607267</ele>
        <time>2026-03-06T19:57:27.137Z</time>
      </trkpt>
      <trkpt lat="45.894146" lon="5.675468">
        <ele>460.929672</ele>
        <time>2026-03-06T19:58:09.774Z</time>
      </trkpt>
      <trkpt lat="45.894820" lon="5.675370">
        <ele>465.039972</ele>
        <time>2026-03-06T19:59:35.173Z</time>
      </trkpt>
      <trkpt lat="45.894818" lon="5.675627">
        <ele>466.125289</ele>
        <time>2026-03-06T19:59:59.285Z</time>
      </trkpt>
      <trkpt lat="45.894911" lon="5.675690">
        <ele>466.749242</ele>
        <time>2026-03-06T20:00:13.506Z</time>
      </trkpt>
      <trkpt lat="45.895202" lon="5.676228">
        <ele>472.302526</ele>
        <time>2026-03-06T20:01:22.219Z</time>
      </trkpt>
      <trkpt lat="45.895456" lon="5.676571">
        <ele>476.384448</ele>
        <time>2026-03-06T20:02:15.548Z</time>
      </trkpt>
      <trkpt lat="45.895605" lon="5.676922">
        <ele>479.735269</ele>
        <time>2026-03-06T20:03:00.169Z</time>
      </trkpt>
      <trkpt lat="45.896176" lon="5.677657">
        <ele>488.316196</ele>
        <time>2026-03-06T20:04:49.741Z</time>
      </trkpt>
      <trkpt lat="45.896178" lon="5.677775">
        <ele>488.854749</ele>
        <time>2026-03-06T20:05:00.544Z</time>
      </trkpt>
      <trkpt lat="45.896133" lon="5.677998">
        <ele>489.914128</ele>
        <time>2026-03-06T20:05:21.348Z</time>
      </trkpt>
      <trkpt lat="45.896148" lon="5.678715">
        <ele>493.187031</ele>
        <time>2026-03-06T20:06:22.442Z</time>
      </trkpt>
      <trkpt lat="45.896118" lon="5.680293">
        <ele>500.203708</ele>
        <time>2026-03-06T20:08:30.586Z</time>
      </trkpt>
      <trkpt lat="45.896608" lon="5.680148">
        <ele>502.707852</ele>
        <time>2026-03-06T20:09:28.741Z</time>
      </trkpt>
      <trkpt lat="45.896698" lon="5.680651">
        <ele>504.517068</ele>
        <time>2026-03-06T20:10:11.544Z</time>
      </trkpt>
      <trkpt lat="45.896728" lon="5.681122">
        <ele>506.164683</ele>
        <time>2026-03-06T20:10:51.469Z</time>
      </trkpt>
      <trkpt lat="45.896939" lon="5.682101">
        <ele>509.108460</ele>
        <time>2026-03-06T20:12:14.878Z</time>
      </trkpt>
      <trkpt lat="45.896934" lon="5.682469">
        <ele>509.678768</ele>
        <time>2026-03-06T20:12:43.921Z</time>
      </trkpt>
      <trkpt lat="45.897419" lon="5.682463">
        <ele>510.758604</ele>
        <time>2026-03-06T20:13:37.472Z</time>
      </trkpt>
      <trkpt lat="45.897418" lon="5.682582">
        <ele>510.943001</ele>
        <time>2026-03-06T20:13:46.336Z</time>
      </trkpt>
      <trkpt lat="45.897506" lon="5.683133">
        <ele>511.818934</ele>
        <time>2026-03-06T20:14:27.572Z</time>
      </trkpt>
      <trkpt lat="45.897889" lon="5.683609">
        <ele>512.345894</ele>
        <time>2026-03-06T20:15:18.493Z</time>
      </trkpt>
      <trkpt lat="45.898229" lon="5.684388">
        <ele>511.218892</ele>
        <time>2026-03-06T20:16:24.401Z</time>
      </trkpt>
      <trkpt lat="45.898802" lon="5.685096">
        <ele>509.887982</ele>
        <time>2026-03-06T20:17:43.269Z</time>
      </trkpt>
      <trkpt lat="45.898880" lon="5.685233">
        <ele>509.671040</ele>
        <time>2026-03-06T20:17:56.248Z</time>
      </trkpt>
      <trkpt lat="45.899155" lon="5.685919">
        <ele>507.181840</ele>
        <time>2026-03-06T20:18:55.223Z</time>
      </trkpt>
      <trkpt lat="45.899504" lon="5.686390">
        <ele>504.614124</ele>
        <time>2026-03-06T20:19:47.637Z</time>
      </trkpt>
      <trkpt lat="45.899519" lon="5.686533">
        <ele>504.074396</ele>
        <time>2026-03-06T20:19:58.752Z</time>
      </trkpt>
      <trkpt lat="45.899498" lon="5.686689">
        <ele>503.481386</ele>
        <time>2026-03-06T20:20:11.185Z</time>
      </trkpt>
      <trkpt lat="45.899411" lon="5.686908">
        <ele>502.540247</ele>
        <time>2026-03-06T20:20:30.875Z</time>
      </trkpt>
      <trkpt lat="45.899319" lon="5.687041">
        <ele>501.840372</ele>
        <time>2026-03-06T20:20:45.680Z</time>
      </trkpt>
      <trkpt lat="45.899038" lon="5.687111">
        <ele>500.310912</ele>
        <time>2026-03-06T20:21:18.371Z</time>
      </trkpt>
      <trkpt lat="45.898984" lon="5.687174">
        <ele>499.937881</ele>
        <time>2026-03-06T20:21:26.420Z</time>
      </trkpt>
      <trkpt lat="45.898978" lon="5.687324">
        <ele>499.178895</ele>
        <time>2026-03-06T20:21:38.583Z</time>
      </trkpt>
      <trkpt lat="45.898920" lon="5.687639">
        <ele>497.389265</ele>
        <time>2026-03-06T20:22:05.109Z</time>
      </trkpt>
      <trkpt lat="45.898967" lon="5.687886">
        <ele>495.982851</ele>
        <time>2026-03-06T20:22:26.033Z</time>
      </trkpt>
      <trkpt lat="45.898966" lon="5.688163">
        <ele>494.461443</ele>
        <time>2026-03-06T20:22:48.785Z</time>
      </trkpt>
      <trkpt lat="45.898883" lon="5.688253">
        <ele>493.640810</ele>
        <time>2026-03-06T20:23:00.983Z</time>
      </trkpt>
      <trkpt lat="45.898781" lon="5.688314">
        <ele>492.768871</ele>
        <time>2026-03-06T20:23:13.885Z</time>
      </trkpt>
      <trkpt lat="45.898595" lon="5.688370">
        <ele>491.269048</ele>
        <time>2026-03-06T20:23:36.072Z</time>
      </trkpt>
      <trkpt lat="45.898446" lon="5.688464">
        <ele>489.984767</ele>
        <time>2026-03-06T20:23:55.031Z</time>
      </trkpt>
      <trkpt lat="45.898382" lon="5.688576">
        <ele>489.188816</ele>
        <time>2026-03-06T20:24:06.801Z</time>
      </trkpt>
      <trkpt lat="45.898259" lon="5.688898">
        <ele>487.171353</ele>
        <time>2026-03-06T20:24:36.268Z</time>
      </trkpt>
      <trkpt lat="45.898147" lon="5.688971">
        <ele>486.200744</ele>
        <time>2026-03-06T20:24:50.369Z</time>
      </trkpt>
      <trkpt lat="45.896343" lon="5.689289">
        <ele>474.319070</ele>
        <time>2026-03-06T20:28:15.238Z</time>
      </trkpt>
      <trkpt lat="45.896073" lon="5.689726">
        <ele>472.065375</ele>
        <time>2026-03-06T20:29:01.459Z</time>
      </trkpt>
      <trkpt lat="45.895791" lon="5.689739">
        <ele>470.544900</ele>
        <time>2026-03-06T20:29:33.508Z</time>
      </trkpt>
      <trkpt lat="45.895399" lon="5.689653">
        <ele>468.407936</ele>
        <time>2026-03-06T20:30:18.206Z</time>
      </trkpt>
      <trkpt lat="45.894844" lon="5.689140">
        <ele>464.851621</ele>
        <time>2026-03-06T20:31:30.484Z</time>
      </trkpt>
      <trkpt lat="45.894664" lon="5.688870">
        <ele>463.973413</ele>
        <time>2026-03-06T20:31:58.161Z</time>
      </trkpt>
      <trkpt lat="45.894409" lon="5.688643">
        <ele>463.405505</ele>
        <time>2026-03-06T20:32:29.935Z</time>
      </trkpt>
      <trkpt lat="45.894332" lon="5.688428">
        <ele>463.086909</ele>
        <time>2026-03-06T20:32:47.769Z</time>
      </trkpt>
      <trkpt lat="45.894264" lon="5.688350">
        <ele>462.922180</ele>
        <time>2026-03-06T20:32:56.935Z</time>
      </trkpt>
      <trkpt lat="45.893673" lon="5.688077">
        <ele>461.746905</ele>
        <time>2026-03-06T20:34:01.412Z</time>
      </trkpt>
      <trkpt lat="45.893352" lon="5.687839">
        <ele>461.063049</ele>
        <time>2026-03-06T20:34:37.998Z</time>
      </trkpt>
      <trkpt lat="45.893244" lon="5.687707">
        <ele>460.814279</ele>
        <time>2026-03-06T20:34:52.385Z</time>
      </trkpt>
      <trkpt lat="45.893181" lon="5.687527">
        <ele>460.639656</ele>
        <time>2026-03-06T20:35:06.865Z</time>
      </trkpt>
      <trkpt lat="45.893065" lon="5.686977">
        <ele>460.141560</ele>
        <time>2026-03-06T20:35:47.420Z</time>
      </trkpt>
      <trkpt lat="45.893033" lon="5.686685">
        <ele>459.885363</ele>
        <time>2026-03-06T20:36:08.555Z</time>
      </trkpt>
      <trkpt lat="45.893023" lon="5.686187">
        <ele>459.453561</ele>
        <time>2026-03-06T20:36:44.221Z</time>
      </trkpt>
      <trkpt lat="45.892904" lon="5.685816">
        <ele>459.099508</ele>
        <time>2026-03-06T20:37:13.607Z</time>
      </trkpt>
      <trkpt lat="45.892745" lon="5.685741">
        <ele>458.891112</ele>
        <time>2026-03-06T20:37:30.810Z</time>
      </trkpt>
      <trkpt lat="45.892618" lon="5.685722">
        <ele>458.732107</ele>
        <time>2026-03-06T20:37:43.840Z</time>
      </trkpt>
      <trkpt lat="45.892541" lon="5.685661">
        <ele>458.622611</ele>
        <time>2026-03-06T20:37:52.905Z</time>
      </trkpt>
      <trkpt lat="45.892439" lon="5.685491">
        <ele>457.599513</ele>
        <time>2026-03-06T20:38:08.929Z</time>
      </trkpt>
      <trkpt lat="45.892379" lon="5.685339">
        <ele>456.766764</ele>
        <time>2026-03-06T20:38:21.899Z</time>
      </trkpt>
      <trkpt lat="45.892353" lon="5.685273">
        <ele>456.405353</ele>
        <time>2026-03-06T20:38:27.651Z</time>
      </trkpt>
      <trkpt lat="45.892248" lon="5.684881">
        <ele>454.403693</ele>
        <time>2026-03-06T20:39:00.890Z</time>
      </trkpt>
      <trkpt lat="45.892228" lon="5.684709">
        <ele>453.572657</ele>
        <time>2026-03-06T20:39:14.989Z</time>
      </trkpt>
      <trkpt lat="45.892233" lon="5.684423">
        <ele>452.209279</ele>
        <time>2026-03-06T20:39:38.083Z</time>
      </trkpt>
      <trkpt lat="45.892140" lon="5.684093">
        <ele>450.512620</ele>
        <time>2026-03-06T20:40:06.520Z</time>
      </trkpt>
      <trkpt lat="45.891891" lon="5.684242">
        <ele>448.665768</ele>
        <time>2026-03-06T20:40:37.751Z</time>
      </trkpt>
      <trkpt lat="45.891781" lon="5.684566">
        <ele>446.947818</ele>
        <time>2026-03-06T20:41:07.253Z</time>
      </trkpt>
      <trkpt lat="45.891898" lon="5.684933">
        <ele>444.285933</ele>
        <time>2026-03-06T20:41:40.731Z</time>
      </trkpt>
      <trkpt lat="45.891901" lon="5.685124">
        <ele>442.847492</ele>
        <time>2026-03-06T20:41:57.064Z</time>
      </trkpt>
      <trkpt lat="45.891753" lon="5.685681">
        <ele>438.358520</ele>
        <time>2026-03-06T20:42:48.687Z</time>
      </trkpt>
      <trkpt lat="45.891799" lon="5.686191">
        <ele>434.486517</ele>
        <time>2026-03-06T20:43:32.313Z</time>
      </trkpt>
      <trkpt lat="45.891828" lon="5.686686">
        <ele>430.746382</ele>
        <time>2026-03-06T20:44:14.310Z</time>
      </trkpt>
      <trkpt lat="45.891868" lon="5.686895">
        <ele>429.114373</ele>
        <time>2026-03-06T20:44:32.636Z</time>
      </trkpt>
      <trkpt lat="45.892028" lon="5.687404">
        <ele>425.006133</ele>
        <time>2026-03-06T20:45:19.695Z</time>
      </trkpt>
      <trkpt lat="45.892086" lon="5.687847">
        <ele>421.782431</ele>
        <time>2026-03-06T20:45:57.375Z</time>
      </trkpt>
      <trkpt lat="45.892331" lon="5.688464">
        <ele>416.702339</ele>
        <time>2026-03-06T20:46:57.491Z</time>
      </trkpt>
      <trkpt lat="45.892416" lon="5.688622">
        <ele>415.274210</ele>
        <time>2026-03-06T20:47:14.291Z</time>
      </trkpt>
      <trkpt lat="45.892693" lon="5.688921">
        <ele>411.714284</ele>
        <time>2026-03-06T20:47:55.499Z</time>
      </trkpt>
      <trkpt lat="45.892924" lon="5.689328">
        <ele>407.963317</ele>
        <time>2026-03-06T20:48:38.696Z</time>
      </trkpt>
      <trkpt lat="45.892945" lon="5.689429">
        <ele>407.218445</ele>
        <time>2026-03-06T20:48:47.489Z</time>
      </trkpt>
      <trkpt lat="45.893044" lon="5.689540">
        <ele>405.943486</ele>
        <time>2026-03-06T20:49:02.363Z</time>
      </trkpt>
      <trkpt lat="45.893393" lon="5.689741">
        <ele>402.126078</ele>
        <time>2026-03-06T20:49:47.625Z</time>
      </trkpt>
      <trkpt lat="45.893574" lon="5.689901">
        <ele>399.968467</ele>
        <time>2026-03-06T20:50:13.772Z</time>
      </trkpt>
      <trkpt lat="45.893678" lon="5.690306">
        <ele>396.918040</ele>
        <time>2026-03-06T20:50:50.665Z</time>
      </trkpt>
      <trkpt lat="45.893697" lon="5.690499">
        <ele>395.540671</ele>
        <time>2026-03-06T20:51:06.998Z</time>
      </trkpt>
      <trkpt lat="45.893654" lon="5.690698">
        <ele>394.068267</ele>
        <time>2026-03-06T20:51:24.142Z</time>
      </trkpt>
      <trkpt lat="45.893494" lon="5.690958">
        <ele>391.615861</ele>
        <time>2026-03-06T20:51:52.789Z</time>
      </trkpt>
      <trkpt lat="45.893378" lon="5.691068">
        <ele>390.204750</ele>
        <time>2026-03-06T20:52:09.520Z</time>
      </trkpt>
      <trkpt lat="45.893322" lon="5.691194">
        <ele>389.861230</ele>
        <time>2026-03-06T20:52:22.020Z</time>
      </trkpt>
      <trkpt lat="45.893342" lon="5.691339">
        <ele>389.601121</ele>
        <time>2026-03-06T20:52:34.363Z</time>
      </trkpt>
      <trkpt lat="45.893582" lon="5.692042">
        <ele>388.223301</ele>
        <time>2026-03-06T20:53:37.865Z</time>
      </trkpt>
      <trkpt lat="45.893609" lon="5.692170">
        <ele>387.987952</ele>
        <time>2026-03-06T20:53:48.264Z</time>
      </trkpt>
      <trkpt lat="45.893590" lon="5.692303">
        <ele>387.749043</ele>
        <time>2026-03-06T20:53:58.517Z</time>
      </trkpt>
      <trkpt lat="45.893527" lon="5.692374">
        <ele>387.546613</ele>
        <time>2026-03-06T20:54:07.122Z</time>
      </trkpt>
      <trkpt lat="45.893428" lon="5.692438">
        <ele>387.272151</ele>
        <time>2026-03-06T20:54:18.414Z</time>
      </trkpt>
      <trkpt lat="45.893393" lon="5.692458">
        <ele>387.176922</ele>
        <time>2026-03-06T20:54:22.132Z</time>
      </trkpt>
      <trkpt lat="45.893246" lon="5.692549">
        <ele>386.772245</ele>
        <time>2026-03-06T20:54:38.584Z</time>
      </trkpt>
      <trkpt lat="45.893088" lon="5.692666">
        <ele>386.322854</ele>
        <time>2026-03-06T20:54:57.979Z</time>
      </trkpt>
      <trkpt lat="45.893021" lon="5.692764">
        <ele>386.081130</ele>
        <time>2026-03-06T20:55:08.915Z</time>
      </trkpt>
      <trkpt lat="45.892955" lon="5.693584">
        <ele>389.617127</ele>
        <time>2026-03-06T20:56:20.650Z</time>
      </trkpt>
      <trkpt lat="45.892853" lon="5.694203">
        <ele>394.556348</ele>
        <time>2026-03-06T20:57:24.830Z</time>
      </trkpt>
      <trkpt lat="45.892790" lon="5.694502">
        <ele>396.982053</ele>
        <time>2026-03-06T20:57:58.833Z</time>
      </trkpt>
      <trkpt lat="45.892752" lon="5.694558">
        <ele>397.589336</ele>
        <time>2026-03-06T20:58:07.609Z</time>
      </trkpt>
      <trkpt lat="45.892617" lon="5.694623">
        <ele>399.177735</ele>
        <time>2026-03-06T20:58:30.861Z</time>
      </trkpt>
      <trkpt lat="45.892121" lon="5.694537">
        <ele>404.751337</ele>
        <time>2026-03-06T20:59:50.146Z</time>
      </trkpt>
      <trkpt lat="45.892021" lon="5.694542">
        <ele>405.761096</ele>
        <time>2026-03-06T21:00:05.512Z</time>
      </trkpt>
      <trkpt lat="45.891816" lon="5.694551">
        <ele>407.079714</ele>
        <time>2026-03-06T21:00:34.834Z</time>
      </trkpt>
      <trkpt lat="45.891545" lon="5.694631">
        <ele>408.858447</ele>
        <time>2026-03-06T21:01:10.891Z</time>
      </trkpt>
      <trkpt lat="45.891426" lon="5.694613">
        <ele>409.627760</ele>
        <time>2026-03-06T21:01:26.033Z</time>
      </trkpt>
      <trkpt lat="45.891309" lon="5.694508">
        <ele>410.514675</ele>
        <time>2026-03-06T21:01:43.414Z</time>
      </trkpt>
      <trkpt lat="45.891162" lon="5.694311">
        <ele>411.807103</ele>
        <time>2026-03-06T21:02:08.116Z</time>
      </trkpt>
      <trkpt lat="45.890982" lon="5.694161">
        <ele>413.144952</ele>
        <time>2026-03-06T21:02:32.416Z</time>
      </trkpt>
      <trkpt lat="45.890622" lon="5.694020">
        <ele>415.543957</ele>
        <time>2026-03-06T21:03:14.191Z</time>
      </trkpt>
      <trkpt lat="45.890494" lon="5.694019">
        <ele>416.366918</ele>
        <time>2026-03-06T21:03:27.734Z</time>
      </trkpt>
      <trkpt lat="45.890434" lon="5.694056">
        <ele>416.786707</ele>
        <time>2026-03-06T21:03:34.800Z</time>
      </trkpt>
      <trkpt lat="45.889533" lon="5.693751">
        <ele>416.150410</ele>
        <time>2026-03-06T21:05:08.345Z</time>
      </trkpt>
      <trkpt lat="45.889499" lon="5.693740">
        <ele>416.108895</ele>
        <time>2026-03-06T21:05:11.971Z</time>
      </trkpt>
      <trkpt lat="45.889282" lon="5.693726">
        <ele>415.850141</ele>
        <time>2026-03-06T21:05:34.199Z</time>
      </trkpt>
      <trkpt lat="45.889012" lon="5.693787">
        <ele>415.524561</ele>
        <time>2026-03-06T21:06:02.998Z</time>
      </trkpt>
      <trkpt lat="45.888801" lon="5.693776">
        <ele>415.273049</ele>
        <time>2026-03-06T21:06:25.453Z</time>
      </trkpt>
      <trkpt lat="45.887726" lon="5.693715">
        <ele>410.037084</ele>
        <time>2026-03-06T21:08:23.588Z</time>
      </trkpt>
      <trkpt lat="45.887024" lon="5.693521">
        <ele>405.966538</ele>
        <time>2026-03-06T21:09:44.933Z</time>
      </trkpt>
      <trkpt lat="45.886104" lon="5.693057">
        <ele>399.520170</ele>
        <time>2026-03-06T21:11:36.310Z</time>
      </trkpt>
      <trkpt lat="45.885898" lon="5.693029">
        <ele>398.101445</ele>
        <time>2026-03-06T21:12:00.024Z</time>
      </trkpt>
      <trkpt lat="45.885284" lon="5.693058">
        <ele>393.889342</ele>
        <time>2026-03-06T21:13:09.794Z</time>
      </trkpt>
      <trkpt lat="45.885238" lon="5.693034">
        <ele>393.553792</ele>
        <time>2026-03-06T21:13:15.325Z</time>
      </trkpt>
      <trkpt lat="45.885013" lon="5.692920">
        <ele>391.869431</ele>
        <time>2026-03-06T21:13:42.319Z</time>
      </trkpt>
      <trkpt lat="45.884765" lon="5.692686">
        <ele>389.654158</ele>
        <time>2026-03-06T21:14:15.749Z</time>
      </trkpt>
      <trkpt lat="45.884771" lon="5.692570">
        <ele>389.049620</ele>
        <time>2026-03-06T21:14:24.898Z</time>
      </trkpt>
      <trkpt lat="45.884666" lon="5.692290">
        <ele>387.396675</ele>
        <time>2026-03-06T21:14:50.117Z</time>
      </trkpt>
      <trkpt lat="45.884498" lon="5.691605">
        <ele>383.622077</ele>
        <time>2026-03-06T21:15:47.670Z</time>
      </trkpt>
      <trkpt lat="45.884315" lon="5.691009">
        <ele>380.236575</ele>
        <time>2026-03-06T21:16:40.372Z</time>
      </trkpt>
      <trkpt lat="45.884170" lon="5.690890">
        <ele>378.978198</ele>
        <time>2026-03-06T21:17:00.179Z</time>
      </trkpt>
      <trkpt lat="45.883932" lon="5.690744">
        <ele>376.549437</ele>
        <time>2026-03-06T21:17:31.129Z</time>
      </trkpt>
      <trkpt lat="45.883787" lon="5.690565">
        <ele>374.755175</ele>
        <time>2026-03-06T21:17:54.024Z</time>
      </trkpt>
      <trkpt lat="45.883502" lon="5.690176">
        <ele>371.065638</ele>
        <time>2026-03-06T21:18:41.471Z</time>
      </trkpt>
      <trkpt lat="45.883430" lon="5.689940">
        <ele>369.382257</ele>
        <time>2026-03-06T21:19:02.932Z</time>
      </trkpt>
      <trkpt lat="45.883406" lon="5.689606">
        <ele>367.188610</ele>
        <time>2026-03-06T21:19:30.812Z</time>
      </trkpt>
      <trkpt lat="45.883280" lon="5.689394">
        <ele>365.367455</ele>
        <time>2026-03-06T21:19:54.132Z</time>
      </trkpt>
      <trkpt lat="45.883204" lon="5.689340">
        <ele>364.571716</ele>
        <time>2026-03-06T21:20:04.391Z</time>
      </trkpt>
      <trkpt lat="45.883122" lon="5.689453">
        <ele>363.505301</ele>
        <time>2026-03-06T21:20:18.163Z</time>
      </trkpt>
      <trkpt lat="45.882997" lon="5.689543">
        <ele>362.193072</ele>
        <time>2026-03-06T21:20:34.892Z</time>
      </trkpt>
      <trkpt lat="45.882658" lon="5.689656">
        <ele>360.928497</ele>
        <time>2026-03-06T21:21:14.740Z</time>
      </trkpt>
      <trkpt lat="45.882307" lon="5.689728">
        <ele>359.664445</ele>
        <time>2026-03-06T21:21:53.403Z</time>
      </trkpt>
      <trkpt lat="45.882185" lon="5.689726">
        <ele>359.229472</ele>
        <time>2026-03-06T21:22:06.377Z</time>
      </trkpt>
      <trkpt lat="45.882051" lon="5.689646">
        <ele>358.712130</ele>
        <time>2026-03-06T21:22:21.794Z</time>
      </trkpt>
      <trkpt lat="45.882146" lon="5.689428">
        <ele>358.073829</ele>
        <time>2026-03-06T21:22:40.435Z</time>
      </trkpt>
      <trkpt lat="45.882168" lon="5.689282">
        <ele>357.703093</ele>
        <time>2026-03-06T21:22:51.174Z</time>
      </trkpt>
      <trkpt lat="45.882142" lon="5.688900">
        <ele>356.750520</ele>
        <time>2026-03-06T21:23:18.537Z</time>
      </trkpt>
      <trkpt lat="45.882107" lon="5.688627">
        <ele>356.061590</ele>
        <time>2026-03-06T21:23:38.125Z</time>
      </trkpt>
      <trkpt lat="45.881963" lon="5.688339">
        <ele>355.399860</ele>
        <time>2026-03-06T21:24:03.395Z</time>
      </trkpt>
      <trkpt lat="45.881031" lon="5.687447">
        <ele>352.961921</ele>
        <time>2026-03-06T21:25:56.819Z</time>
      </trkpt>
      <trkpt lat="45.880853" lon="5.687198">
        <ele>352.421055</ele>
        <time>2026-03-06T21:26:23.748Z</time>
      </trkpt>
      <trkpt lat="45.880665" lon="5.686846">
        <ele>351.341514</ele>
        <time>2026-03-06T21:26:58.812Z</time>
      </trkpt>
      <trkpt lat="45.880564" lon="5.686912">
        <ele>349.839091</ele>
        <time>2026-03-06T21:27:11.887Z</time>
      </trkpt>
      <trkpt lat="45.880238" lon="5.687127">
        <ele>344.981962</ele>
        <time>2026-03-06T21:27:55.294Z</time>
      </trkpt>
      <trkpt lat="45.879906" lon="5.687453">
        <ele>339.536659</ele>
        <time>2026-03-06T21:28:46.134Z</time>
      </trkpt>
      <trkpt lat="45.879692" lon="5.687747">
        <ele>335.527120</ele>
        <time>2026-03-06T21:29:25.075Z</time>
      </trkpt>
      <trkpt lat="45.879514" lon="5.687789">
        <ele>333.084654</ele>
        <time>2026-03-06T21:29:49.318Z</time>
      </trkpt>
      <trkpt lat="45.879208" lon="5.687796">
        <ele>328.940809</ele>
        <time>2026-03-06T21:30:31.471Z</time>
      </trkpt>
      <trkpt lat="45.878773" lon="5.687703">
        <ele>322.618120</ele>
        <time>2026-03-06T21:31:30.955Z</time>
      </trkpt>
      <trkpt lat="45.878444" lon="5.687430">
        <ele>317.051757</ele>
        <time>2026-03-06T21:32:20.492Z</time>
      </trkpt>
      <trkpt lat="45.878329" lon="5.687392">
        <ele>315.322978</ele>
        <time>2026-03-06T21:32:39.404Z</time>
      </trkpt>
      <trkpt lat="45.878197" lon="5.687273">
        <ele>313.039825</ele>
        <time>2026-03-06T21:33:04.453Z</time>
      </trkpt>
      <trkpt lat="45.878118" lon="5.687133">
        <ele>311.201784</ele>
        <time>2026-03-06T21:33:24.379Z</time>
      </trkpt>
      <trkpt lat="45.877839" lon="5.686033">
        <ele>299.419249</ele>
        <time>2026-03-06T21:35:31.822Z</time>
      </trkpt>
      <trkpt lat="45.877821" lon="5.685729">
        <ele>296.571793</ele>
        <time>2026-03-06T21:36:04.295Z</time>
      </trkpt>
      <trkpt lat="45.877805" lon="5.685445">
        <ele>293.912573</ele>
        <time>2026-03-06T21:36:34.671Z</time>
      </trkpt>
      <trkpt lat="45.877648" lon="5.684930">
        <ele>288.665485</ele>
        <time>2026-03-06T21:37:35.193Z</time>
      </trkpt>
      <trkpt lat="45.877601" lon="5.684530">
        <ele>284.879500</ele>
        <time>2026-03-06T21:38:19.833Z</time>
      </trkpt>
      <trkpt lat="45.877616" lon="5.684128">
        <ele>281.122258</ele>
        <time>2026-03-06T21:39:05.245Z</time>
      </trkpt>
      <trkpt lat="45.877593" lon="5.683781">
        <ele>277.869071</ele>
        <time>2026-03-06T21:39:44.475Z</time>
      </trkpt>
      <trkpt lat="45.877490" lon="5.683358">
        <ele>273.884972</ele>
        <time>2026-03-06T21:40:34.836Z</time>
      </trkpt>
      <trkpt lat="45.877470" lon="5.683336">
        <ele>273.567415</ele>
        <time>2026-03-06T21:40:38.909Z</time>
      </trkpt>
      <trkpt lat="45.877349" lon="5.683349">
        <ele>272.037832</ele>
        <time>2026-03-06T21:40:58.597Z</time>
      </trkpt>
      <trkpt lat="45.877124" lon="5.683444">
        <ele>269.081487</ele>
        <time>2026-03-06T21:41:36.522Z</time>
      </trkpt>
      <trkpt lat="45.877043" lon="5.683421">
        <ele>268.040643</ele>
        <time>2026-03-06T21:41:49.868Z</time>
      </trkpt>
      <trkpt lat="45.876896" lon="5.683395">
        <ele>266.173570</ele>
        <time>2026-03-06T21:42:08.990Z</time>
      </trkpt>
      <trkpt lat="45.876756" lon="5.683460">
        <ele>264.318827</ele>
        <time>2026-03-06T21:42:27.707Z</time>
      </trkpt>
      <trkpt lat="45.876684" lon="5.683517">
        <ele>263.282467</ele>
        <time>2026-03-06T21:42:38.146Z</time>
      </trkpt>
      <trkpt lat="45.876658" lon="5.683554">
        <ele>262.821089</ele>
        <time>2026-03-06T21:42:42.717Z</time>
      </trkpt>
      <trkpt lat="45.876265" lon="5.684125">
        <ele>255.774332</ele>
        <time>2026-03-06T21:43:50.785Z</time>
      </trkpt>
      <trkpt lat="45.876049" lon="5.684227">
        <ele>253.883184</ele>
        <time>2026-03-06T21:44:16.793Z</time>
      </trkpt>
      <trkpt lat="45.875919" lon="5.684202">
        <ele>253.358581</ele>
        <time>2026-03-06T21:44:31.497Z</time>
      </trkpt>
      <trkpt lat="45.875348" lon="5.683969">
        <ele>250.984363</ele>
        <time>2026-03-06T21:45:36.913Z</time>
      </trkpt>
      <trkpt lat="45.875265" lon="5.684355">
        <ele>249.859374</ele>
        <time>2026-03-06T21:46:06.913Z</time>
      </trkpt>
      <trkpt lat="45.875160" lon="5.684353">
        <ele>249.439366</ele>
        <time>2026-03-06T21:46:17.837Z</time>
      </trkpt>
      <trkpt lat="45.875065" lon="5.684446">
        <ele>248.979530</ele>
        <time>2026-03-06T21:46:29.842Z</time>
      </trkpt>
      <trkpt lat="45.874781" lon="5.685051">
        <ele>247.122918</ele>
        <time>2026-03-06T21:47:21.876Z</time>
      </trkpt>
      <trkpt lat="45.874835" lon="5.685528">
        <ele>246.988964</ele>
        <time>2026-03-06T21:47:55.799Z</time>
      </trkpt>
      <trkpt lat="45.874798" lon="5.685620">
        <ele>246.959514</ele>
        <time>2026-03-06T21:48:03.244Z</time>
      </trkpt>
      <trkpt lat="45.874774" lon="5.685677">
        <ele>246.941050</ele>
        <time>2026-03-06T21:48:07.928Z</time>
      </trkpt>
      <trkpt lat="45.874695" lon="5.685860">
        <ele>246.881365</ele>
        <time>2026-03-06T21:48:22.989Z</time>
      </trkpt>
      <trkpt lat="45.874675" lon="5.685945">
        <ele>246.856495</ele>
        <time>2026-03-06T21:48:29.230Z</time>
      </trkpt>
      <trkpt lat="45.874645" lon="5.686165">
        <ele>246.794355</ele>
        <time>2026-03-06T21:48:44.881Z</time>
      </trkpt>
      <trkpt lat="45.874601" lon="5.687084">
        <ele>246.539019</ele>
        <time>2026-03-06T21:49:49.408Z</time>
      </trkpt>
      <trkpt lat="45.874591" lon="5.687695">
        <ele>246.426212</ele>
        <time>2026-03-06T21:50:32.178Z</time>
      </trkpt>
      <trkpt lat="45.874590" lon="5.687814">
        <ele>246.426212</ele>
        <time>2026-03-06T21:50:40.459Z</time>
      </trkpt>
      <trkpt lat="45.874591" lon="5.687965">
        <ele>246.426212</ele>
        <time>2026-03-06T21:50:51.063Z</time>
      </trkpt>
      <trkpt lat="45.874590" lon="5.688264">
        <ele>246.426212</ele>
        <time>2026-03-06T21:51:12.008Z</time>
      </trkpt>
      <trkpt lat="45.874510" lon="5.688163">
        <ele>246.426212</ele>
        <time>2026-03-06T21:51:22.724Z</time>
      </trkpt>
      <trkpt lat="45.874425" lon="5.688016">
        <ele>246.426212</ele>
        <time>2026-03-06T21:51:36.166Z</time>
      </trkpt>
      <trkpt lat="45.874457" lon="5.687921">
        <ele>246.426212</ele>
        <time>2026-03-06T21:51:43.555Z</time>
      </trkpt>
      <trkpt lat="45.874480" lon="5.687501">
        <ele>246.426212</ele>
        <time>2026-03-06T21:52:12.997Z</time>
      </trkpt>
    </trkseg>
  </trk>
</gpx>